0 SL-23 R/B
1 39238U 13045B   13282.32119127 -.00000071  00000-0  00000+0 0   203
2 39238 026.7515 281.3170 6408706 012.6110 357.9002 02.10661445   811
0 SL-23 R/B
1 39238U 13045B   13286.11850596  .00000001  00000-0  00000+0 0   219
2 39238 026.7378 280.5711 6408324 013.8620 357.6820 02.10660390   896
0 SL-23 R/B
1 39238U 13045B   13288.96651291  .00000014  00000-0  00000+0 0   220
2 39238 026.7269 280.0072 6408805 014.8025 357.5272 02.10659974   957
0 SL-23 R/B
1 39238U 13045B   13289.91583199 -.00000015  00000-0  00000+0 0   230
2 39238 026.7218 279.8169 6409512 015.1140 357.4605 02.10659933   978
0 SL-23 R/B
1 39238U 13045B   13292.28911523 -.00000120  00000-0  00000+0 0   248
2 39238 026.7147 279.3541 6410019 015.8857 357.2956 02.10660570  1027
0 SL-23 R/B
1 39238U 13045B   13292.76377349 -.00000131  00000-0  00000+0 0   256
2 39238 026.7130 279.2556 6410444 016.0429 357.2716 02.10660935  1034
0 SL-23 R/B
1 39238U 13045B   13295.61171553 -.00000077  00000-0  00000+0 0   262
2 39238 026.7032 278.6928 6411000 016.9777 357.0950 02.10660724  1095
